{"type":"FeatureCollection","attribution":"\u00a9 OpenStreetMap contributors (ODbL)","features":[{"type":"Feature","properties":{"code":"baq_riomar"},"geometry":{"type":"MultiPolygon","coordinates":[[[[-74.84287,11.01291],[-74.82998,11.00609],[-74.83024,11.00532],[-74.82813,11.00405],[-74.82469,11.00309],[-74.82062,11.00304],[-74.81877,11.0024],[-74.81675,11.0066],[-74.81828,11.00732],[-74.81663,11.00834],[-74.81518,11.01019],[-74.81322,11.00934],[-74.81393,11.00877],[-74.81209,11.00796],[-74.81103,11.01084],[-74.81019,11.01179],[-74.8108,11.01195],[-74.80872,11.01575],[-74.81101,11.01635],[-74.81074,11.01731],[-74.80924,11.01931],[-74.80752,11.01898],[-74.80611,11.02029],[-74.80634,11.02065],[-74.80503,11.02105],[-74.80269,11.02301],[-74.80128,11.02512],[-74.80029,11.02826],[-74.80262,11.03],[-74.8105,11.03425],[-74.81263,11.0361],[-74.81828,11.03942],[-74.82055,11.04159],[-74.82668,11.0442],[-74.82824,11.04532],[-74.83013,11.04417],[-74.83131,11.0448],[-74.83207,11.04394],[-74.82983,11.04178],[-74.82994,11.04121],[-74.83085,11.04135],[-74.83085,11.04072],[-74.82999,11.04041],[-74.82844,11.03831],[-74.82716,11.03887],[-74.82705,11.03742],[-74.83012,11.03411],[-74.83239,11.03057],[-74.83903,11.01443],[-74.84019,11.01315],[-74.84172,11.01263],[-74.84287,11.01291]]]]}},{"type":"Feature","properties":{"code":"baq_norte_centro"},"geometry":{"type":"MultiPolygon","coordinates":[[[[-74.84221,11.00423],[-74.8367,10.9886],[-74.83613,10.98264],[-74.83238,10.98313],[-74.82913,10.98675],[-74.82818,10.98645],[-74.82718,10.98496],[-74.82604,10.98474],[-74.82305,10.98504],[-74.81908,10.98734],[-74.80477,10.98373],[-74.80542,10.98222],[-74.802,10.98109],[-74.80253,10.9799],[-74.80122,10.97936],[-74.80068,10.98047],[-74.79685,10.97906],[-74.79565,10.97958],[-74.79595,10.97914],[-74.79405,10.97866],[-74.79388,10.9795],[-74.79166,10.97895],[-74.79142,10.97985],[-74.79057,10.97962],[-74.7903,10.98066],[-74.77461,10.97517],[-74.76904,10.9742],[-74.76931,10.97767],[-74.76304,10.97792],[-74.75936,10.97698],[-74.75892,10.97877],[-74.75953,10.98235],[-74.76047,10.98418],[-74.7624,10.99135],[-74.76635,10.99792],[-74.77005,11.0018],[-74.77549,11.00657],[-74.77857,11.00842],[-74.77836,11.00782],[-74.77753,11.00738],[-74.77764,11.00699],[-74.77815,11.00689],[-74.77891,11.00798],[-74.77949,11.00768],[-74.78335,11.01191],[-74.78696,11.01409],[-74.78728,11.01516],[-74.80035,11.02746],[-74.80136,11.02496],[-74.80295,11.02274],[-74.80503,11.02105],[-74.80634,11.02065],[-74.80611,11.02029],[-74.80752,11.01898],[-74.80924,11.01931],[-74.81074,11.01731],[-74.81101,11.01635],[-74.80872,11.01575],[-74.8108,11.01195],[-74.81019,11.01179],[-74.81103,11.01084],[-74.81209,11.00796],[-74.81393,11.00877],[-74.81322,11.00934],[-74.81518,11.01019],[-74.81663,11.00834],[-74.81828,11.00732],[-74.81675,11.0066],[-74.81877,11.0024],[-74.82062,11.00304],[-74.82469,11.00309],[-74.82813,11.00405],[-74.83024,11.00532],[-74.82998,11.00609],[-74.84034,11.01156],[-74.84145,11.00873],[-74.84221,11.00423]]]]}},{"type":"Feature","properties":{"code":"baq_suroccidente"},"geometry":{"type":"MultiPolygon","coordinates":[[[[-74.90769,10.95057],[-74.8997,10.94971],[-74.89226,10.95048],[-74.89211,10.94591],[-74.87755,10.94511],[-74.87808,10.94456],[-74.87118,10.9403],[-74.86757,10.93888],[-74.85813,10.93667],[-74.85365,10.93837],[-74.84962,10.93895],[-74.84381,10.94216],[-74.83881,10.94365],[-74.83208,10.94322],[-74.83036,10.94346],[-74.82553,10.94449],[-74.81478,10.94811],[-74.81249,10.94975],[-74.80583,10.95652],[-74.8061,10.95669],[-74.80445,10.9591],[-74.80322,10.96215],[-74.80257,10.96233],[-74.8004,10.96138],[-74.79839,10.96259],[-74.79512,10.96294],[-74.79088,10.96499],[-74.7893,10.96664],[-74.788,10.9673],[-74.7904,10.968],[-74.78901,10.9732],[-74.79223,10.97464],[-74.79057,10.97962],[-74.79142,10.97985],[-74.79166,10.97895],[-74.79388,10.9795],[-74.79405,10.97866],[-74.79595,10.97914],[-74.79565,10.97958],[-74.79685,10.97906],[-74.80068,10.98047],[-74.80122,10.97936],[-74.80253,10.9799],[-74.802,10.98109],[-74.80542,10.98222],[-74.80477,10.98373],[-74.81881,10.98731],[-74.81954,10.98726],[-74.82305,10.98504],[-74.82604,10.98474],[-74.82718,10.98496],[-74.82818,10.98645],[-74.82913,10.98675],[-74.83266,10.98299],[-74.83673,10.98255],[-74.84676,10.97994],[-74.90769,10.95057]]]]}},{"type":"Feature","properties":{"code":"baq_metropolitana"},"geometry":{"type":"MultiPolygon","coordinates":[[[[-74.83442,10.93577],[-74.83392,10.93311],[-74.8325,10.93078],[-74.83113,10.92965],[-74.82753,10.92791],[-74.82867,10.92563],[-74.82816,10.92494],[-74.82934,10.9218],[-74.82403,10.92069],[-74.82327,10.92091],[-74.82251,10.92314],[-74.82247,10.92554],[-74.81607,10.92244],[-74.81086,10.92254],[-74.80837,10.92169],[-74.80518,10.92245],[-74.80316,10.92179],[-74.79833,10.92132],[-74.79801,10.923],[-74.79712,10.92342],[-74.79809,10.92446],[-74.79772,10.92641],[-74.79703,10.92652],[-74.79663,10.92824],[-74.79569,10.92864],[-74.79443,10.93062],[-74.79483,10.93103],[-74.79654,10.93122],[-74.7974,10.93083],[-74.79754,10.92989],[-74.79919,10.93005],[-74.79914,10.93487],[-74.79664,10.93519],[-74.79745,10.93869],[-74.79727,10.94411],[-74.79876,10.9439],[-74.7995,10.94339],[-74.80052,10.94357],[-74.80048,10.94831],[-74.80208,10.94829],[-74.80192,10.94861],[-74.80305,10.94915],[-74.80166,10.95153],[-74.803,10.95212],[-74.80237,10.95381],[-74.8003,10.95532],[-74.80057,10.95567],[-74.7964,10.9594],[-74.79891,10.96227],[-74.8004,10.96138],[-74.8029,10.96229],[-74.8061,10.95669],[-74.80583,10.95652],[-74.81395,10.94853],[-74.82553,10.94449],[-74.8314,10.94327],[-74.83371,10.94332],[-74.83442,10.93577]]]]}},{"type":"Feature","properties":{"code":"baq_suroriente"},"geometry":{"type":"MultiPolygon","coordinates":[[[[-74.80305,10.94915],[-74.80192,10.94861],[-74.80208,10.94829],[-74.80048,10.94831],[-74.80052,10.94357],[-74.7995,10.94339],[-74.79876,10.9439],[-74.79727,10.94411],[-74.79745,10.93869],[-74.79664,10.93519],[-74.79914,10.93487],[-74.79919,10.93005],[-74.79754,10.92989],[-74.7974,10.93083],[-74.79654,10.93122],[-74.79483,10.93103],[-74.79443,10.93062],[-74.79318,10.93118],[-74.79235,10.93107],[-74.79152,10.93173],[-74.79069,10.93355],[-74.78923,10.93391],[-74.78828,10.9337],[-74.78207,10.93758],[-74.78121,10.93482],[-74.7797,10.93507],[-74.77755,10.94065],[-74.77664,10.94106],[-74.77625,10.94251],[-74.77363,10.94414],[-74.77082,10.94424],[-74.76977,10.94461],[-74.76943,10.94526],[-74.76841,10.94532],[-74.76744,10.94518],[-74.76669,10.94424],[-74.76597,10.94447],[-74.76546,10.94362],[-74.76392,10.94511],[-74.76275,10.94536],[-74.76178,10.94511],[-74.76069,10.94416],[-74.75961,10.94441],[-74.75882,10.94514],[-74.75906,10.94688],[-74.75849,10.96126],[-74.75883,10.97259],[-74.75936,10.97698],[-74.76304,10.97792],[-74.76931,10.97767],[-74.76904,10.9742],[-74.77461,10.97517],[-74.7903,10.98066],[-74.79223,10.97464],[-74.78901,10.9732],[-74.7904,10.968],[-74.788,10.9673],[-74.7893,10.96664],[-74.79088,10.96499],[-74.795,10.96299],[-74.79782,10.96275],[-74.79891,10.96227],[-74.7964,10.9594],[-74.80057,10.95567],[-74.8003,10.95532],[-74.80237,10.95381],[-74.803,10.95212],[-74.80166,10.95153],[-74.80305,10.94915]]]]}},{"type":"Feature","properties":{"code":"amb_soledad"},"geometry":{"type":"MultiPolygon","coordinates":[[[[-74.83908,10.8856],[-74.83172,10.88685],[-74.82441,10.89063],[-74.81999,10.89113],[-74.81825,10.89038],[-74.82478,10.87911],[-74.81406,10.87663],[-74.81123,10.88001],[-74.80755,10.88063],[-74.80559,10.8861],[-74.79909,10.87981],[-74.80048,10.87627],[-74.79926,10.87609],[-74.79722,10.87825],[-74.79656,10.87752],[-74.79531,10.88139],[-74.79132,10.88008],[-74.79139,10.87846],[-74.7893,10.87699],[-74.78979,10.87576],[-74.78797,10.87513],[-74.78722,10.87714],[-74.78561,10.87657],[-74.78468,10.87899],[-74.78319,10.87883],[-74.78199,10.87604],[-74.7803,10.87558],[-74.77878,10.87759],[-74.7804,10.88011],[-74.77824,10.88408],[-74.77392,10.88131],[-74.76946,10.88083],[-74.76978,10.88999],[-74.76464,10.89048],[-74.76299,10.88975],[-74.76129,10.88731],[-74.74752,10.88426],[-74.74438,10.88497],[-74.74647,10.8791],[-74.74366,10.87996],[-74.73665,10.87955],[-74.73536,10.89254],[-74.7283,10.91608],[-74.73166,10.92126],[-74.75119,10.93831],[-74.75363,10.9442],[-74.76054,10.94412],[-74.7625,10.94538],[-74.76546,10.94362],[-74.76779,10.94529],[-74.77363,10.94414],[-74.77755,10.94065],[-74.7797,10.93507],[-74.78121,10.93482],[-74.78207,10.93758],[-74.78828,10.9337],[-74.79069,10.93355],[-74.7923,10.9311],[-74.79463,10.93055],[-74.79772,10.92641],[-74.79809,10.92446],[-74.79712,10.92342],[-74.79833,10.92132],[-74.80518,10.92245],[-74.80837,10.92169],[-74.81476,10.92233],[-74.82112,10.91859],[-74.82206,10.91606],[-74.82543,10.91501],[-74.82842,10.91128],[-74.82821,10.90825],[-74.83324,10.90435],[-74.83604,10.90069],[-74.83652,10.89446],[-74.83908,10.8856]]]]}},{"type":"Feature","properties":{"code":"amb_malambo"},"geometry":{"type":"MultiPolygon","coordinates":[[[[-74.88246,10.81312],[-74.80468,10.81226],[-74.76794,10.82453],[-74.7682,10.82542],[-74.75449,10.82313],[-74.75296,10.8273],[-74.75465,10.82873],[-74.7557,10.83239],[-74.75034,10.83463],[-74.74134,10.83428],[-74.74139,10.84922],[-74.73728,10.86081],[-74.73616,10.87128],[-74.73665,10.87955],[-74.74366,10.87996],[-74.74647,10.8791],[-74.74438,10.88497],[-74.74752,10.88426],[-74.76129,10.88731],[-74.76299,10.88975],[-74.76464,10.89048],[-74.76978,10.88999],[-74.76946,10.88083],[-74.77392,10.88131],[-74.77824,10.88408],[-74.7804,10.88011],[-74.77878,10.87759],[-74.7803,10.87558],[-74.78199,10.87604],[-74.78319,10.87883],[-74.78468,10.87899],[-74.78561,10.87657],[-74.78722,10.87714],[-74.78797,10.87513],[-74.78979,10.87576],[-74.7893,10.87699],[-74.79139,10.87846],[-74.79132,10.88008],[-74.79531,10.88139],[-74.79656,10.87752],[-74.79722,10.87825],[-74.79926,10.87609],[-74.80048,10.87627],[-74.79909,10.87981],[-74.80559,10.8861],[-74.80755,10.88063],[-74.81123,10.88001],[-74.81406,10.87663],[-74.82478,10.87911],[-74.81825,10.89038],[-74.81999,10.89113],[-74.82441,10.89063],[-74.83134,10.88697],[-74.83887,10.8855],[-74.84508,10.87745],[-74.84465,10.87625],[-74.84268,10.8757],[-74.84296,10.87334],[-74.8388,10.87172],[-74.84501,10.86753],[-74.86127,10.86294],[-74.86225,10.86081],[-74.86692,10.86089],[-74.8711,10.85569],[-74.87156,10.84391],[-74.86974,10.83922],[-74.86659,10.83682],[-74.86895,10.8345],[-74.87325,10.82628],[-74.88246,10.81312]]]]}},{"type":"Feature","properties":{"code":"amb_galapa"},"geometry":{"type":"MultiPolygon","coordinates":[[[[-74.94457,10.85913],[-74.94431,10.8585],[-74.93672,10.85855],[-74.93152,10.85522],[-74.92856,10.85711],[-74.92617,10.85728],[-74.92253,10.8524],[-74.92219,10.85036],[-74.91749,10.85029],[-74.91443,10.84614],[-74.9113,10.84705],[-74.90562,10.85065],[-74.90323,10.84886],[-74.90149,10.84523],[-74.89951,10.84347],[-74.89515,10.85096],[-74.89581,10.85442],[-74.89504,10.85482],[-74.89263,10.85399],[-74.89117,10.84983],[-74.88034,10.85292],[-74.87179,10.85311],[-74.86961,10.85816],[-74.86692,10.86089],[-74.86225,10.86081],[-74.86127,10.86294],[-74.84501,10.86753],[-74.8388,10.87172],[-74.84296,10.87334],[-74.84268,10.8757],[-74.84465,10.87625],[-74.84508,10.87753],[-74.83892,10.8853],[-74.83652,10.89446],[-74.83604,10.90069],[-74.83324,10.90435],[-74.82821,10.90825],[-74.82848,10.91113],[-74.82667,10.91389],[-74.83232,10.9157],[-74.83401,10.91802],[-74.83923,10.92137],[-74.83831,10.92627],[-74.84364,10.92885],[-74.84864,10.93492],[-74.85018,10.93882],[-74.85813,10.93667],[-74.87118,10.9403],[-74.87808,10.94456],[-74.87755,10.94511],[-74.89211,10.94591],[-74.89226,10.95048],[-74.8997,10.94971],[-74.90769,10.95057],[-74.92113,10.9441],[-74.92267,10.94216],[-74.92267,10.93808],[-74.92465,10.93508],[-74.92684,10.92348],[-74.92837,10.90765],[-74.9277,10.90156],[-74.92457,10.89777],[-74.92497,10.89499],[-74.93152,10.88391],[-74.92942,10.8804],[-74.92993,10.87733],[-74.93156,10.87501],[-74.93424,10.87431],[-74.9352,10.87259],[-74.93986,10.86927],[-74.94273,10.86435],[-74.94248,10.86195],[-74.94457,10.85913]]]]}},{"type":"Feature","properties":{"code":"amb_puerto_colombia"},"geometry":{"type":"MultiPolygon","coordinates":[[[[-74.98208,10.98147],[-74.97811,10.97662],[-74.97823,10.97439],[-74.9738,10.97699],[-74.95824,10.98055],[-74.95467,10.97619],[-74.95595,10.97398],[-74.95032,10.97041],[-74.94775,10.97044],[-74.94549,10.97436],[-74.9423,10.97207],[-74.93884,10.97406],[-74.93592,10.97385],[-74.93279,10.9761],[-74.92945,10.97424],[-74.92582,10.97552],[-74.92217,10.97311],[-74.91852,10.97243],[-74.92221,10.96822],[-74.92654,10.96668],[-74.9274,10.96272],[-74.92836,10.96205],[-74.92774,10.95866],[-74.93003,10.9522],[-74.92945,10.9516],[-74.92453,10.95238],[-74.92192,10.95155],[-74.91994,10.947],[-74.91824,10.94563],[-74.91921,10.94684],[-74.91709,10.95136],[-74.91792,10.95392],[-74.91505,10.95687],[-74.91203,10.95775],[-74.90838,10.95734],[-74.90525,10.9604],[-74.90002,10.96087],[-74.90808,10.97235],[-74.90455,10.97138],[-74.8955,10.98082],[-74.88625,10.977],[-74.88551,10.9785],[-74.88251,10.97888],[-74.87927,10.98169],[-74.87712,10.98522],[-74.8764,10.98508],[-74.87588,10.98688],[-74.87385,10.98747],[-74.87512,10.98899],[-74.87394,10.99052],[-74.87527,10.98989],[-74.87654,10.99051],[-74.87582,10.99245],[-74.87677,10.994],[-74.87534,10.99549],[-74.87642,10.99554],[-74.87624,10.9968],[-74.88359,11.0019],[-74.87462,11.01099],[-74.87163,11.00902],[-74.86521,11.01683],[-74.85123,11.01696],[-74.84287,11.01291],[-74.83998,11.01325],[-74.83239,11.03057],[-74.82714,11.03726],[-74.82716,11.03887],[-74.84,11.03251],[-74.84957,11.02994],[-74.85934,11.03142],[-74.86046,11.02852],[-74.86402,11.02649],[-74.86486,11.0249],[-74.86651,11.02545],[-74.87005,11.02128],[-74.87162,11.0224],[-74.86822,11.02659],[-74.87135,11.0275],[-74.87231,11.02874],[-74.87177,11.02967],[-74.87353,11.03156],[-74.87058,11.0396],[-74.87165,11.04229],[-74.87037,11.04332],[-74.8696,11.04599],[-74.87916,11.04405],[-74.90367,11.04286],[-74.92102,11.04568],[-74.92213,11.04437],[-74.92253,11.04032],[-74.92094,11.03159],[-74.92263,11.02831],[-74.9329,11.02116],[-74.93877,11.01879],[-74.94267,11.01831],[-74.94254,11.01691],[-74.94658,11.01048],[-74.94997,11.00989],[-74.95272,11.00745],[-74.95541,10.99601],[-74.95725,10.99433],[-74.95795,10.99098],[-74.9608,10.98947],[-74.96041,10.98865],[-74.9616,10.98704],[-74.96848,10.98337],[-74.97879,10.98005],[-74.98053,10.97994],[-74.98208,10.98147]]]]}}]}